[{"OBJECT_NAME":"DMC3-FM2","OBJECT_ID":"2015-032B","EPOCH":"2026-03-09T22:51:57.203424","MEAN_MOTION":14.85619682,"ECCENTRICITY":0.00071042,"INCLINATION":97.6664,"RA_OF_ASC_NODE":299.4449,"ARG_OF_PERICENTER":36.5414,"MEAN_ANOMALY":323.6285,"EPHEMERIS_TYPE":0,"CLASSIFICATION_TYPE":"U","NORAD_CAT_ID":40716,"ELEMENT_SET_NO":999,"REV_AT_EPOCH":57517,"BSTAR":0.00013054077,"MEAN_MOTION_DOT":1.079e-5,"MEAN_MOTION_DDOT":0},{"OBJECT_NAME":"GEESAT-3 09","OBJECT_ID":"2024-159J","EPOCH":"2026-03-09T19:20:24.519840","MEAN_MOTION":14.83818365,"ECCENTRICITY":0.00221767,"INCLINATION":49.996,"RA_OF_ASC_NODE":183.5508,"ARG_OF_PERICENTER":38.7487,"MEAN_ANOMALY":321.5038,"EPHEMERIS_TYPE":0,"CLASSIFICATION_TYPE":"U","NORAD_CAT_ID":61019,"ELEMENT_SET_NO":999,"REV_AT_EPOCH":8201,"BSTAR":0.00039687818,"MEAN_MOTION_DOT":3.108e-5,"MEAN_MOTION_DDOT":0}]
